NORBI                   
1 46494U 20068J   26194.31969985  .00015173  00000+0  27632-3 0  9994
2 46494  97.8613 212.6090 0008175 149.4271 210.7456 15.49563417320254
SALSAT                  
1 46495U 20068K   26193.91391395  .00004828  00000+0  16824-3 0  9990
2 46495  97.8853 198.5521 0008922 201.3461 158.7407 15.30153171319292
ICEYE-X6                
1 46497U 20068M   26194.26103981  .00001927  00000+0  14185-3 0  9998
2 46497  98.0986 189.1820 0007399  15.8239 344.3215 15.04660269317155
NETSAT-4                
1 46504U 20068U   26193.97858387  .00013082  00000+0  28211-3 0  9991
2 46504  97.8603 204.3078 0004497 201.3286 158.7775 15.44709153319758
NETSAT-3                
1 46505U 20068V   26194.26363387  .00011177  00000+0  25092-3 0  9993
2 46505  97.8649 202.8011 0003560 219.4839 140.6148 15.43563557319707
NETSAT-1                
1 46506U 20068W   26193.95109643  .00008370  00000+0  24743-3 0  9995
2 46506  97.8748 196.4849 0002410 276.5907  83.5061 15.35213925319259
NETSAT-2                
1 46507U 20068X   26193.46346907  .00015171  00000+0  30146-3 0  9999
2 46507  97.8611 203.7420 0001783 220.9475 139.1640 15.47081469319644
TIANQI-6                
1 46810U 20076D   26194.23568735  .00001746  00000+0  11507-3 0  9999
2 46810  34.9982 248.5775 0009820  36.6941 323.4440 15.07346473312514
KSM1-C                  
1 46906U 20081B   26194.31537067  .00005111  00000+0  19102-3 0  9993
2 46906  36.8953 257.5865 0001324  72.0527 288.0366 15.27161047313163
KSM1-D                  
1 46907U 20081C   26194.28675949  .00004127  00000+0  16493-3 0  9998
2 46907  36.8970 267.2820 0002511 122.3966 237.7026 15.25086311313080
KSM1-A                  
1 46912U 20081H   26194.26675981  .00004645  00000+0  17820-3 0  9998
2 46912  36.8962 260.4804 0002890 188.3910 171.6791 15.26357257313160
R2                      
1 46913U 20081J   26194.23201072  .00004473  00000+0  17456-3 0  9996
2 46913  36.8974 260.8144 0007576 150.5300 209.5878 15.25804399315965
KSM1-B                  
1 46914U 20081K   26194.29388553  .00003954  00000+0  15921-3 0  9991
2 46914  36.9020 267.9068 0004513 147.9699 212.1325 15.24869066316173
GONETS-M 20             
1 47227U 20091A   26194.32848001 -.00000001  00000+0 -82792-4 0  9996
2 47227  82.5053 286.1870 0022128 122.7948 237.5267 12.42894275254329
GONETS-M 21             
1 47228U 20091B   26194.30247375  .00000052  00000+0  30317-3 0  9991
2 47228  82.4977 284.8942 0015831 135.8055 224.4292 12.42887506254317
GONETS-M 22             
1 47229U 20091C   26194.27545715  .00000060  00000+0  36328-3 0  9994
2 47229  82.5035 285.8218 0022975 118.3947 241.9452 12.42893655254262
CUBEL                   
1 47448U 21006AM  26194.12506048  .00006437  00000+0  15301-3 0  9996
2 47448  97.2317 244.4752 0007997  88.3916 271.8248 15.41972992303752
ARKTIKA-M 1             
1 47719U 21016A   26188.42887598 -.00000257  00000+0  00000+0 0  9997
2 47719  63.2524  54.6812 7295086 270.0380  14.5466  2.00614486 39194
STARLINK-2342           
1 47883U 21021Z   26194.33336806  .00214815  28372-4  63471-3 0  9991
2 47883  53.1508  16.0138 0008075 280.8017 123.5221 15.92159167  5961
GRUS-1B                 
1 47934U 21022C   26194.28112311  .00000884  00000+0  77976-4 0  9994
2 47934  97.5345  76.6096 0014430 225.0712 134.9341 14.98771257289800
UNISAT-7                
1 47945U 21022P   26194.20146077  .00009036  00000+0  21981-3 0  9996
2 47945  97.3869  99.4065 0008113 355.5766   4.5408 15.41162841293868
GLOBAL-9                
1 47971U 21023G   26193.95189976  .00016739  00000+0  32427-3 0  9997
2 47971  44.9824 105.6057 0003110 152.2834 207.8222 15.47554402298936
AII-BRAVO               
1 48270U 21034C   26193.97586105  .00002949  00000+0  21968-3 0  9995
2 48270  97.5595 248.2989 0006134 168.4934 191.6433 15.03656486283491
TYVAK-182A              
1 48271U 21034D   26193.70666904  .00003120  00000+0  21599-3 0  9995
2 48271  97.5717 252.1821 0004765 232.4032 127.6763 15.06392223283670
CSS (TIANHE)            
1 48274U 21035A   26193.33050829  .00000806  00000+0  14701-4 0  9997
2 48274  41.4686 169.1964 0002428 290.9815  69.0763 15.58035041297092
TYVAK-0130              
1 48606U 21041BF  26194.21277440  .00004584  00000+0  17857-3 0  9992
2 48606  52.9938 265.1895 0008573 251.1520 108.8549 15.27919188284366
HAIYANG-2D              
1 48621U 21043A   26194.31863476 -.00000050  00000+0  28630-4 0  9999
2 48621  65.9978 239.6420 0011594 266.0397  93.9346 13.83373110260165
2021-050D               
1 48843U 21050D   26194.28012661  .00004138  00000+0  17580-3 0  9992
2 48843  97.3337 269.7239 0006172 158.5622 201.5875 15.23584693282932
