OBJECT_NAME,OBJECT_ID,EPOCH,MEAN_MOTION,ECCENTRICITY,INCLINATION,RA_OF_ASC_NODE,ARG_OF_PERICENTER,MEAN_ANOMALY,EPHEMERIS_TYPE,CLASSIFICATION_TYPE,NORAD_CAT_ID,ELEMENT_SET_NO,REV_AT_EPOCH,BSTAR,MEAN_MOTION_DOT,MEAN_MOTION_DDOT
NORBI,2020-068J,2026-07-13T07:40:22.067040,15.49563417,.00081756,97.8613,212.6090,149.4271,210.7456,0,U,46494,999,32025,.27631836E-3,.15173E-3,0
SALSAT,2020-068K,2026-07-12T21:56:02.165280,15.30153171,.00089225,97.8853,198.5521,201.3461,158.7407,0,U,46495,999,31929,.16824237E-3,.4828E-4,0
ICEYE-X6,2020-068M,2026-07-13T06:15:53.839584,15.04660269,.00073996,98.0986,189.1820,15.8239,344.3215,0,U,46497,999,31715,.14185298E-3,.1927E-4,0
NETSAT-4,2020-068U,2026-07-12T23:29:09.646368,15.44709153,.00044971,97.8603,204.3078,201.3286,158.7775,0,U,46504,999,31975,.28211301E-3,.13082E-3,0
NETSAT-3,2020-068V,2026-07-13T06:19:37.966368,15.43563557,.00035602,97.8649,202.8011,219.4839,140.6148,0,U,46505,999,31970,.25092065E-3,.11177E-3,0
NETSAT-1,2020-068W,2026-07-12T22:49:34.731552,15.35213925,.00024102,97.8748,196.4849,276.5907,83.5061,0,U,46506,999,31925,.2474317E-3,.837E-4,0
NETSAT-2,2020-068X,2026-07-12T11:07:23.727648,15.47081469,.00017834,97.8611,203.7420,220.9475,139.1640,0,U,46507,999,31964,.30146263E-3,.15171E-3,0
TIANQI-6,2020-076D,2026-07-13T05:39:23.387040,15.07346473,.00098208,34.9982,248.5775,36.6941,323.4440,0,U,46810,999,31251,.11507336E-3,.1746E-4,0
KSM1-C,2020-081B,2026-07-13T07:34:08.025888,15.27161047,.00013244,36.8953,257.5865,72.0527,288.0366,0,U,46906,999,31316,.19101605E-3,.5111E-4,0
KSM1-D,2020-081C,2026-07-13T06:52:56.019936,15.25086311,.0002511,36.8970,267.2820,122.3966,237.7026,0,U,46907,999,31308,.16493011E-3,.4127E-4,0
KSM1-A,2020-081H,2026-07-13T06:24:08.047584,15.26357257,.000289,36.8962,260.4804,188.3910,171.6791,0,U,46912,999,31316,.17820101E-3,.4645E-4,0
R2,2020-081J,2026-07-13T05:34:05.726208,15.25804399,.00075769,36.8974,260.8144,150.5300,209.5878,0,U,46913,999,31596,.17455548E-3,.4473E-4,0
KSM1-B,2020-081K,2026-07-13T07:03:11.709792,15.24869066,.00045136,36.9020,267.9068,147.9699,212.1325,0,U,46914,999,31617,.15921495E-3,.3954E-4,0
GONETS-M 20,2020-091A,2026-07-13T07:53:00.672864,12.42894275,.0022128,82.5053,286.1870,122.7948,237.5267,0,U,47227,999,25432,-.82791876E-4,-.1E-7,0
GONETS-M 21,2020-091B,2026-07-13T07:15:33.732000,12.42887506,.00158311,82.4977,284.8942,135.8055,224.4292,0,U,47228,999,25431,.3031706E-3,.52E-6,0
GONETS-M 22,2020-091C,2026-07-13T06:36:39.497760,12.42893655,.00229759,82.5035,285.8218,118.3947,241.9452,0,U,47229,999,25426,.36328099E-3,.6E-6,0
CUBEL,2021-006AM,2026-07-13T03:00:05.225472,15.41972992,.00079978,97.2317,244.4752,88.3916,271.8248,0,U,47448,999,30375,.15300677E-3,.6437E-4,0
ARKTIKA-M 1,2021-016A,2026-07-07T10:17:34.884672,2.00614486,.72950864,63.2524,54.6812,270.0380,14.5466,0,U,47719,999,3919,0,-.257E-5,0
STARLINK-2342,2021-021Z,2026-07-13T08:00:03.000384,15.92159167,.00080754,53.1508,16.0138,280.8017,123.5221,0,U,47883,999,596,.6347069E-3,.214815E-2,.28372305E-4
GRUS-1B,2021-022C,2026-07-13T06:44:49.036704,14.98771257,.00144309,97.5345,76.6096,225.0712,134.9341,0,U,47934,999,28980,.77975608E-4,.884E-5,0
UNISAT-7,2021-022P,2026-07-13T04:50:06.210528,15.41162841,.00081131,97.3869,99.4065,355.5766,4.5408,0,U,47945,999,29386,.21981268E-3,.9036E-4,0
GLOBAL-9,2021-023G,2026-07-12T22:50:44.139264,15.47554402,.00031103,44.9824,105.6057,152.2834,207.8222,0,U,47971,999,29893,.32426709E-3,.16739E-3,0
AII-BRAVO,2021-034C,2026-07-12T23:25:14.394720,15.03656486,.00061341,97.5595,248.2989,168.4934,191.6433,0,U,48270,999,28349,.21968481E-3,.2949E-4,0
TYVAK-182A,2021-034D,2026-07-12T16:57:36.205056,15.06392223,.00047658,97.5717,252.1821,232.4032,127.6763,0,U,48271,999,28367,.21599416E-3,.312E-4,0
CSS (TIANHE),2021-035A,2026-07-12T07:55:55.916256,15.58035041,.00024282,41.4686,169.1964,290.9815,69.0763,0,U,48274,999,29709,.14700842E-4,.806E-5,0
TYVAK-0130,2021-041BF,2026-07-13T05:06:23.708160,15.27919188,.0008573,52.9938,265.1895,251.1520,108.8549,0,U,48606,999,28436,.17856792E-3,.4584E-4,0
HAIYANG-2D,2021-043A,2026-07-13T07:38:50.043264,13.83373110,.00115948,65.9978,239.6420,266.0397,93.9346,0,U,48621,999,26016,.28630021E-4,-.5E-6,0
2021-050D,2021-050D,2026-07-13T06:43:22.939104,15.23584693,.00061729,97.3337,269.7239,158.5622,201.5875,0,U,48843,999,28293,.17580113E-3,.4138E-4,0
